LEMUR-2-STARLIGHT       
1 66783U 25276DY  26170.70654687  .00004398  00000+0  36626-3 0  9990
2 66783  97.5251 241.2596 0015046 120.9064 239.3641 14.99062515 30573
LEMUR-2-TARTIFLETTE     
1 66784U 25276DZ  26170.70497858  .00003712  00000+0  30974-3 0  9995
2 66784  97.5256 241.2651 0014011 127.4604 232.7896 14.99087846 30577
LEMUR-2-VUKASIN         
1 66785U 25276EA  26170.69645639  .00004337  00000+0  34963-3 0  9992
2 66785  97.5297 241.5592 0006033 118.5569 241.6263 15.00389005 30523
LEMUR-2-HOTSPUR-TOM     
1 66786U 25276EB  26170.69772682  .00004483  00000+0  37393-3 0  9994
2 66786  97.5256 241.2390 0015357 120.1487 240.1261 14.98983750 30502
LEMUR-2-MYRA            
1 66787U 25276EC  26170.72813481  .00006697  00000+0  53748-3 0  9993
2 66787  97.5212 241.5259 0016884 133.2022 227.0615 15.00277738 30590
LEMUR-2 FIKRETDENGIZ    
1 67363U 26004A   26170.55462579  .00003183  00000+0  34950-3 0  9994
2 67363  97.8019 169.0760 0010262 126.2869 233.9298 14.88339314 23639
TWILIGHT-1 OBJECT B     
1 67364U 26004B   26170.51281747  .00001360  00000+0  15512-3 0  9995
2 67364  97.8061 169.0492 0010088 117.7730 242.4511 14.87708915 23636
LEMUR-2-MARIO-SOUSA     
1 67365U 26004C   26170.26905613  .00003875  00000+0  42223-3 0  9995
2 67365  97.7989 168.7911 0009851 127.7711 232.4400 14.88527155 23602
LEMUR-2-SONNENBLUME     
1 67367U 26004E   26170.46942116  .00002484  00000+0  27420-3 0  9995
2 67367  97.7984 168.9721 0009343 128.7374 231.4679 14.88325366 23632
LEMUR-2-WOBLER          
1 67368U 26004F   26169.99204473  .00002822  00000+0  30916-3 0  9999
2 67368  97.8038 168.6263 0009725 120.7773 239.4402 14.88525973 23561
LEMUR-2-GRAM-E-SUE      
1 67370U 26004H   26169.98274875  .00001556  00000+0  17338-3 0  9990
2 67370  97.7971 168.5083 0008317 130.7429 229.4511 14.88476924 23564
LEMUR-2-KATIE           
1 67387U 26004AA  26170.57249645  .00002233  00000+0  23688-3 0  9990
2 67387  97.8036 169.5560 0004833  88.1054 272.0717 14.90060068 23669
LEMUR-2-HCS-BAZUS       
1 67388U 26004AB  26170.57151530  .00003646  00000+0  38288-3 0  9997
2 67388  97.8025 169.5356 0004366  86.0649 274.1068 14.90089564 23663
